{
    "links": {
        "self": "http://www.neowsapp.com/rest/v1/neo/3989218?api_key=iIulBulltgU6a56xZRHN4H3l9WmuAYTsLGpBGhQ2"
    },
    "id": "3989218",
    "neo_reference_id": "3989218",
    "name": "(2020 BS9)",
    "designation": "2020 BS9",
    "nasa_jpl_url": "http://ssd.jpl.nasa.gov/sbdb.cgi?sstr=3989218",
    "absolute_magnitude_h": 26.203,
    "estimated_diameter": {
        "kilometers": {
            "estimated_diameter_min": 0.015274077,
            "estimated_diameter_max": 0.0341538745
        },
        "meters": {
            "estimated_diameter_min": 15.2740770338,
            "estimated_diameter_max": 34.1538745411
        },
        "miles": {
            "estimated_diameter_min": 0.0094908685,
            "estimated_diameter_max": 0.0212222272
        },
        "feet": {
            "estimated_diameter_min": 50.1118028955,
            "estimated_diameter_max": 112.0533977493
        }
    },
    "is_potentially_hazardous_asteroid": false,
    "close_approach_data": [
        {
            "close_approach_date": "2020-02-09",
            "close_approach_date_full": "2020-Feb-09 18:31",
            "epoch_date_close_approach": 1581273060000,
            "relative_velocity": {
                "kilometers_per_second": "6.4360848046",
                "kilometers_per_hour": "23169.9052966585",
                "miles_per_hour": "14396.878099471"
            },
            "miss_distance": {
                "astronomical": "0.0582889142",
                "lunar": "22.6743876238",
                "kilometers": "8719897.408932754",
                "miles": "5418293.0003258452"
            },
            "orbiting_body": "Earth"
        },
        {
            "close_approach_date": "2025-04-12",
            "close_approach_date_full": "2025-Apr-12 07:52",
            "epoch_date_close_approach": 1744444320000,
            "relative_velocity": {
                "kilometers_per_second": "15.9469991857",
                "kilometers_per_hour": "57409.1970683652",
                "miles_per_hour": "35671.8424783961"
            },
            "miss_distance": {
                "astronomical": "0.3643045189",
                "lunar": "141.7144578521",
                "kilometers": "54499180.058814743",
                "miles": "33864220.1837917334"
            },
            "orbiting_body": "Earth"
        }
    ],
    "orbital_data": {
        "orbit_id": "3",
        "orbit_determination_date": "2020-02-14 04:59:11",
        "first_observation_date": "2020-01-19",
        "last_observation_date": "2020-02-14",
        "data_arc_in_days": 26,
        "observations_used": 25,
        "orbit_uncertainty": "7",
        "minimum_orbit_intersection": ".0480559",
        "jupiter_tisserand_invariant": "3.865",
        "epoch_osculation": "2459000.5",
        "eccentricity": ".4463097497958478",
        "semi_major_axis": "1.85919458299765",
        "inclination": "4.354593595476256",
        "ascending_node_longitude": "311.2256762365938",
        "orbital_period": "925.9460745445861",
        "perihelion_distance": "1.029417913838173",
        "perihelion_argument": "202.2382129475286",
        "aphelion_distance": "2.688971252157127",
        "perihelion_time": "2458899.598591875338",
        "mean_anomaly": "39.22961382253722",
        "mean_motion": ".3887915396985306",
        "equinox": "J2000",
        "orbit_class": {
            "orbit_class_type": "AMO",
            "orbit_class_description": "Near-Earth asteroid orbits similar to that of 1221 Amor",
            "orbit_class_range": "1.017 AU < q (perihelion) < 1.3 AU"
        }
    },
    "is_sentry_object": false
}